{"type": "FeatureCollection", "features": [ {"type": "Feature", "properties": {"norad_id": 31989, "name": "FENGYUN 1C DEB", "group": "fengyun-1c-debris", "lat": 66.05331130647777, "lon": -115.69805650845142, "alt_km": 988.0992881398652, "timestamp": "2025-12-07T16:44:04.196527+00:00", "meta": {"OBJECT_NAME": "FENGYUN 1C DEB", "OBJECT_ID": "1999-025CPS", "EPOCH": "2025-12-05T23:26:33.079200", "MEAN_MOTION": 13.93571653, "ECCENTRICITY": 0.01152626, "INCLINATION": 99.2136, "RA_OF_ASC_NODE": 41.1517, "ARG_OF_PERICENTER": 317.6605, "MEAN_ANOMALY": 167.1839, "EPHEMERIS_TYPE": 0, "CLASSIFICATION_TYPE": "U", "NORAD_CAT_ID": 31989, "ELEMENT_SET_NO": 999, "REV_AT_EPOCH": 93623, "BSTAR": 0.00092028893, "MEAN_MOTION_DOT": 1.23e-05, "MEAN_MOTION_DDOT": 0}, "tle": {"line1": "1 31989U 99025CPS 25339.97677175  .00001230  00000+0  92029-3 0  9996", "line2": "2 31989  99.2136  41.1517 0115262 317.6605 167.1839 13.93571653936237"}}, "geometry": {"type": "Point", "coordinates": [-115.69805650845142, 66.05331130647777]}}, {"type": "Feature", "properties": {"norad_id": 31990, "name": "FENGYUN 1C DEB", "group": "fengyun-1c-debris", "lat": 33.52635367804226, "lon": -169.3352502108059, "alt_km": 920.6471062606233, "timestamp": "2025-12-07T16:44:04.196537+00:00", "meta": {"OBJECT_NAME": "FENGYUN 1C DEB", "OBJECT_ID": "1999-025CPT", "EPOCH": "2025-12-06T21:09:55.179360", "MEAN_MOTION": 13.57198306, "ECCENTRICITY": 0.02599871, "INCLINATION": 99.161, "RA_OF_ASC_NODE": 3.7673, "ARG_OF_PERICENTER": 199.5473, "MEAN_ANOMALY": 286.8488, "EPHEMERIS_TYPE": 0, "CLASSIFICATION_TYPE": "U", "NORAD_CAT_ID": 31990, "ELEMENT_SET_NO": 999, "REV_AT_EPOCH": 62692, "BSTAR": 0.00043183639, "MEAN_MOTION_DOT": 3.43e-06, "MEAN_MOTION_DDOT": 0}, "tle": {"line1": "1 31990U 99025CPT 25340.88188865  .00000343  00000+0  43184-3 0  9995", "line2": "2 31990  99.1610   3.7673 0259987 199.5473 286.8488 13.57198306626926"}}, "geometry": {"type": "Point", "coordinates": [-169.3352502108059, 33.52635367804226]}}, {"type": "Feature", "properties": {"norad_id": 31991, "name": "FENGYUN 1C DEB", "group": "fengyun-1c-debris", "lat": 78.35749471253202, "lon": 54.3273579492942, "alt_km": 864.5974491344914, "timestamp": "2025-12-07T16:44:04.196548+00:00", "meta": {"OBJECT_NAME": "FENGYUN 1C DEB", "OBJECT_ID": "1999-025CPU", "EPOCH": "2025-12-03T06:27:10.152000", "MEAN_MOTION": 13.6127431, "ECCENTRICITY": 0.0244591, "INCLINATION": 100.4871, "RA_OF_ASC_NODE": 165.5577, "ARG_OF_PERICENTER": 76.633, "MEAN_ANOMALY": 286.1951, "EPHEMERIS_TYPE": 0, "CLASSIFICATION_TYPE": "U", "NORAD_CAT_ID": 31991, "ELEMENT_SET_NO": 999, "REV_AT_EPOCH": 61958, "BSTAR": 0.00020994, "MEAN_MOTION_DOT": 1.46e-06, "MEAN_MOTION_DDOT": 0}, "tle": {"line1": "1 31991U 99025CPU 25337.26886750  .00000146  00000+0  20994-3 0  9997", "line2": "2 31991 100.4871 165.5577 0244591  76.6330 286.1951 13.61274310619581"}}, "geometry": {"type": "Point", "coordinates": [54.3273579492942, 78.35749471253202]}}, {"type": "Feature", "properties": {"norad_id": 31992, "name": "FENGYUN 1C DEB", "group": "fengyun-1c-debris", "lat": -52.39029796851603, "lon": -45.742476849174864, "alt_km": 1194.2974500239807, "timestamp": "2025-12-07T16:44:04.196558+00:00", "meta": {"OBJECT_NAME": "FENGYUN 1C DEB", "OBJECT_ID": "1999-025CPV", "EPOCH": "2025-11-28T04:18:18.013824", "MEAN_MOTION": 13.22945767, "ECCENTRICITY": 0.05423475, "INCLINATION": 99.1642, "RA_OF_ASC_NODE": 293.7613, "ARG_OF_PERICENTER": 64.8199, "MEAN_ANOMALY": 300.815, "EPHEMERIS_TYPE": 0, "CLASSIFICATION_TYPE": "U", "NORAD_CAT_ID": 31992, "ELEMENT_SET_NO": 999, "REV_AT_EPOCH": 53682, "BSTAR": 0.0012217074, "MEAN_MOTION_DOT": 1.091e-05, "MEAN_MOTION_DDOT": 0}, "tle": {"line1": "1 31992U 99025CPV 25332.17937516  .00001091  00000+0  12217-2 0  9998", "line2": "2 31992  99.1642 293.7613 0542347  64.8199 300.8150 13.22945767536827"}}, "geometry": {"type": "Point", "coordinates": [-45.742476849174864, -52.39029796851603]}}, {"type": "Feature", "properties": {"norad_id": 31993, "name": "FENGYUN 1C DEB", "group": "fengyun-1c-debris", "lat": -80.59915336195876, "lon": 34.025239157700774, "alt_km": 1331.7404506341554, "timestamp": "2025-12-07T16:44:04.196568+00:00", "meta": {"OBJECT_NAME": "FENGYUN 1C DEB", "OBJECT_ID": "1999-025CPW", "EPOCH": "2025-12-06T15:53:12.471360", "MEAN_MOTION": 13.27435275, "ECCENTRICITY": 0.04213552, "INCLINATION": 99.2419, "RA_OF_ASC_NODE": 313.5632, "ARG_OF_PERICENTER": 150.2517, "MEAN_ANOMALY": 212.3297, "EPHEMERIS_TYPE": 0, "CLASSIFICATION_TYPE": "U", "NORAD_CAT_ID": 31993, "ELEMENT_SET_NO": 999, "REV_AT_EPOCH": 88862, "BSTAR": 0.0018283472, "MEAN_MOTION_DOT": 1.296e-05, "MEAN_MOTION_DDOT": 0}, "tle": {"line1": "1 31993U 99025CPW 25340.66194990  .00001296  00000+0  18283-2 0  9999", "line2": "2 31993  99.2419 313.5632 0421355 150.2517 212.3297 13.27435275888622"}}, "geometry": {"type": "Point", "coordinates": [34.025239157700774, -80.59915336195876]}}, {"type": "Feature", "properties": {"norad_id": 31994, "name": "FENGYUN 1C DEB", "group": "fengyun-1c-debris", "lat": -51.134539199858814, "lon": -13.015913807806054, "alt_km": 1015.1283896564646, "timestamp": "2025-12-07T16:44:04.196579+00:00", "meta": {"OBJECT_NAME": "FENGYUN 1C DEB", "OBJECT_ID": "1999-025CPX", "EPOCH": "2025-12-06T06:34:51.862368", "MEAN_MOTION": 13.95753387, "ECCENTRICITY": 0.01620138, "INCLINATION": 98.5386, "RA_OF_ASC_NODE": 334.9207, "ARG_OF_PERICENTER": 163.9852, "MEAN_ANOMALY": 196.652, "EPHEMERIS_TYPE": 0, "CLASSIFICATION_TYPE": "U", "NORAD_CAT_ID": 31994, "ELEMENT_SET_NO": 999, "REV_AT_EPOCH": 56706, "BSTAR": 0.00040227301, "MEAN_MOTION_DOT": 5.74e-06, "MEAN_MOTION_DDOT": 0}, "tle": {"line1": "1 31994U 99025CPX 25340.27421137  .00000574  00000+0  40227-3 0  9995", "line2": "2 31994  98.5386 334.9207 0162013 163.9852 196.6520 13.95753387567066"}}, "geometry": {"type": "Point", "coordinates": [-13.015913807806054, -51.134539199858814]}}, {"type": "Feature", "properties": {"norad_id": 31997, "name": "FENGYUN 1C DEB", "group": "fengyun-1c-debris", "lat": -6.445827635611154, "lon": -157.64029153412486, "alt_km": 1063.125560438717, "timestamp": "2025-12-07T16:44:04.196589+00:00", "meta": {"OBJECT_NAME": "FENGYUN 1C DEB", "OBJECT_ID": "1999-025CQA", "EPOCH": "2025-12-06T22:08:32.671968", "MEAN_MOTION": 13.60637396, "ECCENTRICITY": 0.02894858, "INCLINATION": 102.5098, "RA_OF_ASC_NODE": 22.8081, "ARG_OF_PERICENTER": 286.9156, "MEAN_ANOMALY": 70.0427, "EPHEMERIS_TYPE": 0, "CLASSIFICATION_TYPE": "U", "NORAD_CAT_ID": 31997, "ELEMENT_SET_NO": 999, "REV_AT_EPOCH": 61604, "BSTAR": 0.0033866517, "MEAN_MOTION_DOT": 3.304e-05, "MEAN_MOTION_DDOT": 0}, "tle": {"line1": "1 31997U 99025CQA 25340.92260037  .00003304  00000+0  33867-2 0  9995", "line2": "2 31997 102.5098  22.8081 0289485 286.9156  70.0427 13.60637396616041"}}, "geometry": {"type": "Point", "coordinates": [-157.64029153412486, -6.445827635611154]}}, {"type": "Feature", "properties": {"norad_id": 32086, "name": "FENGYUN 1C DEB", "group": "fengyun-1c-debris", "lat": -66.01490412667773, "lon": 58.33225625328506, "alt_km": 1187.3452918589455, "timestamp": "2025-12-07T16:44:04.196600+00:00", "meta": {"OBJECT_NAME": "FENGYUN 1C DEB", "OBJECT_ID": "1999-025CQC", "EPOCH": "2025-12-06T09:30:26.667936", "MEAN_MOTION": 13.68848486, "ECCENTRICITY": 0.03008584, "INCLINATION": 99.2701, "RA_OF_ASC_NODE": 35.544, "ARG_OF_PERICENTER": 151.9949, "MEAN_ANOMALY": 209.7757, "EPHEMERIS_TYPE": 0, "CLASSIFICATION_TYPE": "U", "NORAD_CAT_ID": 32086, "ELEMENT_SET_NO": 999, "REV_AT_EPOCH": 61694, "BSTAR": 0.0037730503, "MEAN_MOTION_DOT": 4.423e-05, "MEAN_MOTION_DDOT": 0}, "tle": {"line1": "1 32086U 99025CQC 25340.39614199  .00004423  00000+0  37731-2 0  9995", "line2": "2 32086  99.2701  35.5440 0300858 151.9949 209.7757 13.68848486616941"}}, "geometry": {"type": "Point", "coordinates": [58.33225625328506, -66.01490412667773]}}, {"type": "Feature", "properties": {"norad_id": 32088, "name": "FENGYUN 1C DEB", "group": "fengyun-1c-debris", "lat": 49.39465276021766, "lon": 41.57895819024403, "alt_km": 1328.2972134070433, "timestamp": "2025-12-07T16:44:04.196610+00:00", "meta": {"OBJECT_NAME": "FENGYUN 1C DEB", "OBJECT_ID": "1999-025CQE", "EPOCH": "2025-12-06T09:18:40.455072", "MEAN_MOTION": 13.25142196, "ECCENTRICITY": 0.04613178, "INCLINATION": 102.4006, "RA_OF_ASC_NODE": 205.1466, "ARG_OF_PERICENTER": 10.58, "MEAN_ANOMALY": 350.463, "EPHEMERIS_TYPE": 0, "CLASSIFICATION_TYPE": "U", "NORAD_CAT_ID": 32088, "ELEMENT_SET_NO": 999, "REV_AT_EPOCH": 59760, "BSTAR": 0.0056997222, "MEAN_MOTION_DOT": 4.329e-05, "MEAN_MOTION_DDOT": 0}, "tle": {"line1": "1 32088U 99025CQE 25340.38796823  .00004329  00000+0  56997-2 0  9991", "line2": "2 32088 102.4006 205.1466 0461317  10.5800 350.4630 13.25142196597608"}}, "geometry": {"type": "Point", "coordinates": [41.57895819024403, 49.39465276021766]}}, {"type": "Feature", "properties": {"norad_id": 32089, "name": "FENGYUN 1C DEB", "group": "fengyun-1c-debris", "lat": 47.94958691609268, "lon": -22.28929136455018, "alt_km": 839.7686641161972, "timestamp": "2025-12-07T16:44:04.196620+00:00", "meta": {"OBJECT_NAME": "FENGYUN 1C DEB", "OBJECT_ID": "1999-025CQF", "EPOCH": "2025-12-05T18:39:03.697632", "MEAN_MOTION": 14.14046407, "ECCENTRICITY": 0.01120432, "INCLINATION": 98.6542, "RA_OF_ASC_NODE": 345.5718, "ARG_OF_PERICENTER": 143.8642, "MEAN_ANOMALY": 217.017, "EPHEMERIS_TYPE": 0, "CLASSIFICATION_TYPE": "U", "NORAD_CAT_ID": 32089, "ELEMENT_SET_NO": 999, "REV_AT_EPOCH": 63117, "BSTAR": 0.00087277188, "MEAN_MOTION_DOT": 1.721e-05, "MEAN_MOTION_DDOT": 0}, "tle": {"line1": "1 32089U 99025CQF 25339.77712613  .00001721  00000+0  87277-3 0  9997", "line2": "2 32089  98.6542 345.5718 0112043 143.8642 217.0170 14.14046407631177"}}, "geometry": {"type": "Point", "coordinates": [-22.28929136455018, 47.94958691609268]}}]}